OBJECT B                
1 51825U 22019B   25311.83150728  .00052419  00000+0  96549-3 0  9997
2 51825  97.3730  30.6287 0008106 214.6558 145.4166 15.48964684205238
